{
  "type": "FeatureCollection",
  "features": [
    {
      "type": "Feature",
      "properties": {
        "norad_id": 34765,
        "name": "IRIDIUM 33 DEB",
        "group": "iridium-33-debris",
        "lat": 6.476139614325369,
        "lon": -143.20773777929136,
        "alt_km": 756.6637389012467,
        "timestamp": "2025-12-02T08:59:33.099559+00:00",
        "meta_object_name": "IRIDIUM 33 DEB",
        "meta_object_id": "1997-051LJ",
        "meta_epoch": "2025-12-02T05:08:41.186112",
        "meta_mean_motion": 14.40418763,
        "meta_eccentricity": 0.0014551,
        "meta_inclination": 86.3401,
        "meta_ra_of_asc_node": 37.2773,
        "meta_arg_of_pericenter": 249.3549,
        "meta_mean_anomaly": 173.3707,
        "meta_ephemeris_type": 0,
        "meta_classification_type": "U",
        "meta_norad_cat_id": 34765,
        "meta_element_set_no": 999,
        "meta_rev_at_epoch": 87462,
        "meta_bstar": 0.00049788,
        "meta_mean_motion_dot": 1.602e-05,
        "meta_mean_motion_ddot": 0,
        "tle_line1": "1 34765U 97051LJ  25336.21436558  .00001602  00000+0  49788-3 0  9997",
        "tle_line2": "2 34765  86.3401  37.2773 0014551 249.3549 173.3707 14.40418763874623"
      },
      "geometry": {
        "type": "Point",
        "coordinates": [
          -143.20773777929136,
          6.476139614325369
        ]
      }
    },
    {
      "type": "Feature",
      "properties": {
        "norad_id": 34833,
        "name": "IRIDIUM 33 DEB",
        "group": "iridium-33-debris",
        "lat": -16.67364050635547,
        "lon": -123.45816530703304,
        "alt_km": 717.0232442944107,
        "timestamp": "2025-12-02T08:59:33.099587+00:00",
        "meta_object_name": "IRIDIUM 33 DEB",
        "meta_object_id": "1997-051MH",
        "meta_epoch": "2025-12-02T05:03:01.051776",
        "meta_mean_motion": 14.52266696,
        "meta_eccentricity": 0.0021485,
        "meta_inclination": 86.3939,
        "meta_ra_of_asc_node": 55.5303,
        "meta_arg_of_pericenter": 130.9995,
        "meta_mean_anomaly": 287.1391,
        "meta_ephemeris_type": 0,
        "meta_classification_type": "U",
        "meta_norad_cat_id": 34833,
        "meta_element_set_no": 999,
        "meta_rev_at_epoch": 87562,
        "meta_bstar": 0.0010041,
        "meta_mean_motion_dot": 4.11e-05,
        "meta_mean_motion_ddot": 0,
        "tle_line1": "1 34833U 97051MH  25336.21042884  .00004110  00000+0  10041-2 0  9994",
        "tle_line2": "2 34833  86.3939  55.5303 0021485 130.9995 287.1391 14.52266696875624"
      },
      "geometry": {
        "type": "Point",
        "coordinates": [
          -123.45816530703304,
          -16.67364050635547
        ]
      }
    },
    {
      "type": "Feature",
      "properties": {
        "norad_id": 34870,
        "name": "IRIDIUM 33 DEB",
        "group": "iridium-33-debris",
        "lat": -3.414564959782274,
        "lon": -41.38917551352521,
        "alt_km": 652.3827249166243,
        "timestamp": "2025-12-02T08:59:33.099602+00:00",
        "meta_object_name": "IRIDIUM 33 DEB",
        "meta_object_id": "1997-051MQ",
        "meta_epoch": "2025-12-01T05:36:37.151712",
        "meta_mean_motion": 14.76055324,
        "meta_eccentricity": 0.0014764,
        "meta_inclination": 86.3102,
        "meta_ra_of_asc_node": 319.3536,
        "meta_arg_of_pericenter": 227.1347,
        "meta_mean_anomaly": 190.7112,
        "meta_ephemeris_type": 0,
        "meta_classification_type": "U",
        "meta_norad_cat_id": 34870,
        "meta_element_set_no": 999,
        "meta_rev_at_epoch": 88741,
        "meta_bstar": 0.0019021,
        "meta_mean_motion_dot": 0.00013168,
        "meta_mean_motion_ddot": 0,
        "tle_line1": "1 34870U 97051MQ  25335.23376333  .00013168  00000+0  19021-2 0  9995",
        "tle_line2": "2 34870  86.3102 319.3536 0014764 227.1347 190.7112 14.76055324887418"
      },
      "geometry": {
        "type": "Point",
        "coordinates": [
          -41.38917551352521,
          -3.414564959782274
        ]
      }
    },
    {
      "type": "Feature",
      "properties": {
        "norad_id": 34896,
        "name": "IRIDIUM 33 DEB",
        "group": "iridium-33-debris",
        "lat": -32.68161942470386,
        "lon": 153.69560337357925,
        "alt_km": 667.252226272577,
        "timestamp": "2025-12-02T08:59:33.099612+00:00",
        "meta_object_name": "IRIDIUM 33 DEB",
        "meta_object_id": "1997-051MY",
        "meta_epoch": "2025-11-28T17:59:37.974912",
        "meta_mean_motion": 14.66055051,
        "meta_eccentricity": 0.00237461,
        "meta_inclination": 86.3294,
        "meta_ra_of_asc_node": 332.9598,
        "meta_arg_of_pericenter": 266.6712,
        "meta_mean_anomaly": 266.6276,
        "meta_ephemeris_type": 0,
        "meta_classification_type": "U",
        "meta_norad_cat_id": 34896,
        "meta_element_set_no": 999,
        "meta_rev_at_epoch": 87414,
        "meta_bstar": 0.00096599733,
        "meta_mean_motion_dot": 5.342e-05,
        "meta_mean_motion_ddot": 0,
        "tle_line1": "1 34896U 97051MY  25332.74974508  .00005342  00000+0  96600-3 0  9998",
        "tle_line2": "2 34896  86.3294 332.9598 0023746 266.6712 266.6276 14.66055051874147"
      },
      "geometry": {
        "type": "Point",
        "coordinates": [
          153.69560337357925,
          -32.68161942470386
        ]
      }
    },
    {
      "type": "Feature",
      "properties": {
        "norad_id": 34926,
        "name": "IRIDIUM 33 DEB",
        "group": "iridium-33-debris",
        "lat": 32.64629687663474,
        "lon": 15.560034968414142,
        "alt_km": 688.1830825934148,
        "timestamp": "2025-12-02T08:59:33.099623+00:00",
        "meta_object_name": "IRIDIUM 33 DEB",
        "meta_object_id": "1997-051NF",
        "meta_epoch": "2025-12-02T02:22:03.194112",
        "meta_mean_motion": 14.5364627,
        "meta_eccentricity": 0.0077001,
        "meta_inclination": 86.1337,
        "meta_ra_of_asc_node": 13.2046,
        "meta_arg_of_pericenter": 329.0462,
        "meta_mean_anomaly": 59.3492,
        "meta_ephemeris_type": 0,
        "meta_classification_type": "U",
        "meta_norad_cat_id": 34926,
        "meta_element_set_no": 999,
        "meta_rev_at_epoch": 86302,
        "meta_bstar": 0.0054378,
        "meta_mean_motion_dot": 0.00023732,
        "meta_mean_motion_ddot": 0,
        "tle_line1": "1 34926U 97051NF  25336.09864808  .00023732  00000+0  54378-2 0  9993",
        "tle_line2": "2 34926  86.1337  13.2046 0077001 329.0462  59.3492 14.53646270863020"
      },
      "geometry": {
        "type": "Point",
        "coordinates": [
          15.560034968414142,
          32.64629687663474
        ]
      }
    },
    {
      "type": "Feature",
      "properties": {
        "norad_id": 34985,
        "name": "IRIDIUM 33 DEB",
        "group": "iridium-33-debris",
        "lat": -66.58420372653457,
        "lon": -110.2702482680197,
        "alt_km": 745.5218838871788,
        "timestamp": "2025-12-02T08:59:33.099633+00:00",
        "meta_object_name": "IRIDIUM 33 DEB",
        "meta_object_id": "1997-051NR",
        "meta_epoch": "2025-12-01T05:20:19.248000",
        "meta_mean_motion": 14.4192555,
        "meta_eccentricity": 0.0019807,
        "meta_inclination": 86.3697,
        "meta_ra_of_asc_node": 61.7912,
        "meta_arg_of_pericenter": 260.0842,
        "meta_mean_anomaly": 129.3276,
        "meta_ephemeris_type": 0,
        "meta_classification_type": "U",
        "meta_norad_cat_id": 34985,
        "meta_element_set_no": 999,
        "meta_rev_at_epoch": 87009,
        "meta_bstar": 0.00086459,
        "meta_mean_motion_dot": 2.856e-05,
        "meta_mean_motion_ddot": 0,
        "tle_line1": "1 34985U 97051NR  25335.22244500  .00002856  00000+0  86459-3 0  9993",
        "tle_line2": "2 34985  86.3697  61.7912 0019807 260.0842 129.3276 14.41925550870093"
      },
      "geometry": {
        "type": "Point",
        "coordinates": [
          -110.2702482680197,
          -66.58420372653457
        ]
      }
    },
    {
      "type": "Feature",
      "properties": {
        "norad_id": 35051,
        "name": "IRIDIUM 33 DEB",
        "group": "iridium-33-debris",
        "lat": -28.74034553526564,
        "lon": 11.359755818902197,
        "alt_km": 745.9502838347826,
        "timestamp": "2025-12-02T08:59:33.099643+00:00",
        "meta_object_name": "IRIDIUM 33 DEB",
        "meta_object_id": "1997-051NX",
        "meta_epoch": "2025-12-01T09:53:54.581856",
        "meta_mean_motion": 14.47515304,
        "meta_eccentricity": 0.00104451,
        "meta_inclination": 86.3252,
        "meta_ra_of_asc_node": 13.7986,
        "meta_arg_of_pericenter": 121.6547,
        "meta_mean_anomaly": 238.5677,
        "meta_ephemeris_type": 0,
        "meta_classification_type": "U",
        "meta_norad_cat_id": 35051,
        "meta_element_set_no": 999,
        "meta_rev_at_epoch": 86832,
        "meta_bstar": 0.00073041402,
        "meta_mean_motion_dot": 2.705e-05,
        "meta_mean_motion_ddot": 0,
        "tle_line1": "1 35051U 97051NX  25335.41243729  .00002705  00000+0  73041-3 0  9997",
        "tle_line2": "2 35051  86.3252  13.7986 0010445 121.6547 238.5677 14.47515304868325"
      },
      "geometry": {
        "type": "Point",
        "coordinates": [
          11.359755818902197,
          -28.74034553526564
        ]
      }
    }
  ]
}